IRIDIUM 112             
1 41925U 17003J   25022.28845037  .00000154  00000+0  47998-4 0  9990
2 41925  86.3977 301.7941 0001965  78.4017 281.7400 14.34217189420048
IRIDIUM 111             
1 41926U 17003K   25022.20599913  .00000788  00000+0  27415-3 0  9996
2 41926  86.3979 301.8879 0002087  87.2724 272.8711 14.34222164420013
IRIDIUM 113             
1 42803U 17039A   25022.46503470  .00000380  00000+0  12852-3 0  9998
2 42803  86.4015 175.6024 0001496  89.1336 271.0031 14.34218488397981
IRIDIUM 123             
1 42804U 17039B   25022.50651277 -.00000005  00000+0 -87241-5 0  9995
2 42804  86.3977 207.0144 0001942  97.6738 262.4678 14.34217457396757
IRIDIUM 120             
1 42805U 17039C   25022.45869376  .00000272  00000+0  90092-4 0  9992
2 42805  86.4004 175.4540 0002270  98.2815 261.8638 14.34218181397975
IRIDIUM 115             
1 42806U 17039D   25022.49692771  .00001164  00000+0  34002-3 0  9999
2 42806  86.4542 175.4953 0001984 107.1369 253.0049 14.43290233400608
IRIDIUM 118             
1 42807U 17039E   25022.46845528  .00000250  00000+0  82062-4 0  9992
2 42807  86.3973 207.0306 0001959  90.5257 269.6163 14.34221079396744
IRIDIUM 117             
1 42808U 17039F   25022.48748497  .00000037  00000+0  61825-5 0  9990
2 42808  86.3977 206.9853 0001914 101.3068 258.8343 14.34217494396775
